[{"OBJECT_NAME":"STARLINK-5913","OBJECT_ID":"2023-037Z","EPOCH":"2026-03-09T22:05:21.587136","MEAN_MOTION":14.98326194,"ECCENTRICITY":0.00025738,"INCLINATION":69.9984,"RA_OF_ASC_NODE":283.9196,"ARG_OF_PERICENTER":263.3203,"MEAN_ANOMALY":96.7663,"EPHEMERIS_TYPE":0,"CLASSIFICATION_TYPE":"U","NORAD_CAT_ID":55937,"ELEMENT_SET_NO":999,"REV_AT_EPOCH":16401,"BSTAR":-1.3971877e-5,"MEAN_MOTION_DOT":-2.6e-6,"MEAN_MOTION_DDOT":0},{"OBJECT_NAME":"ORBCOMM FM02","OBJECT_ID":"1995-017B","EPOCH":"2026-03-09T15:14:02.878656","MEAN_MOTION":14.96738099,"ECCENTRICITY":0.0008676,"INCLINATION":69.9626,"RA_OF_ASC_NODE":148.0696,"ARG_OF_PERICENTER":276.2558,"MEAN_ANOMALY":83.7611,"EPHEMERIS_TYPE":0,"CLASSIFICATION_TYPE":"U","NORAD_CAT_ID":23546,"ELEMENT_SET_NO":999,"REV_AT_EPOCH":65179,"BSTAR":0.00080978,"MEAN_MOTION_DOT":9.2e-5,"MEAN_MOTION_DDOT":0}]
